{"type": "FeatureCollection", "features": [ {"type": "Feature", "properties": {"norad_id": 66726, "name": "FLOCK 4H-23", "group": "last-30-days", "lat": 66.78028475140206, "lon": -95.23743693515985, "alt_km": 510.090791841164, "timestamp": "2025-12-21T09:37:21.371776+00:00", "meta": {"OBJECT_NAME": "FLOCK 4H-23", "OBJECT_ID": "2025-276BN", "EPOCH": "2025-12-21T02:47:55.619808", "MEAN_MOTION": 15.17170706, "ECCENTRICITY": 0.0003392, "INCLINATION": 97.4445, "RA_OF_ASC_NODE": 66.7376, "ARG_OF_PERICENTER": 270.7765, "MEAN_ANOMALY": 89.308, "EPHEMERIS_TYPE": 0, "CLASSIFICATION_TYPE": "U", "NORAD_CAT_ID": 66726, "ELEMENT_SET_NO": 999, "REV_AT_EPOCH": 339, "BSTAR": -0.00044453, "MEAN_MOTION_DOT": -8.876e-05, "MEAN_MOTION_DDOT": 0}, "tle": {"line1": "1 66726U 25276BN  25355.11661597 -.00008876  00000+0 -44453-3 0  9998", "line2": "2 66726  97.4445  66.7376 0003392 270.7765  89.3080 15.17170706  3396"}}, "geometry": {"type": "Point", "coordinates": [-95.23743693515985, 66.78028475140206]}}, {"type": "Feature", "properties": {"norad_id": 66727, "name": "FLOCK 4H-24", "group": "last-30-days", "lat": 58.449729521212724, "lon": -100.6805255101214, "alt_km": 510.03057121735856, "timestamp": "2025-12-21T09:37:21.371786+00:00", "meta": {"OBJECT_NAME": "FLOCK 4H-24", "OBJECT_ID": "2025-276BP", "EPOCH": "2025-12-21T04:20:38.590944", "MEAN_MOTION": 15.17308321, "ECCENTRICITY": 0.0002792, "INCLINATION": 97.4449, "RA_OF_ASC_NODE": 66.8069, "ARG_OF_PERICENTER": 271.3097, "MEAN_ANOMALY": 88.7816, "EPHEMERIS_TYPE": 0, "CLASSIFICATION_TYPE": "U", "NORAD_CAT_ID": 66727, "ELEMENT_SET_NO": 999, "REV_AT_EPOCH": 340, "BSTAR": 0.00027021, "MEAN_MOTION_DOT": 5.32e-05, "MEAN_MOTION_DDOT": 0}, "tle": {"line1": "1 66727U 25276BP  25355.18100221  .00005320  00000+0  27021-3 0  9999", "line2": "2 66727  97.4449  66.8069 0002792 271.3097  88.7816 15.17308321  3407"}}, "geometry": {"type": "Point", "coordinates": [-100.6805255101214, 58.449729521212724]}}, {"type": "Feature", "properties": {"norad_id": 66728, "name": "FLOCK 4H-25", "group": "last-30-days", "lat": -13.021874221629266, "lon": -114.69376490059176, "alt_km": 515.667763262566, "timestamp": "2025-12-21T09:37:21.371797+00:00", "meta": {"OBJECT_NAME": "FLOCK 4H-25", "OBJECT_ID": "2025-276BQ", "EPOCH": "2025-12-21T00:51:57.623040", "MEAN_MOTION": 15.18187172, "ECCENTRICITY": 0.0001573, "INCLINATION": 97.4405, "RA_OF_ASC_NODE": 66.6794, "ARG_OF_PERICENTER": 117.6342, "MEAN_ANOMALY": 242.5052, "EPHEMERIS_TYPE": 0, "CLASSIFICATION_TYPE": "U", "NORAD_CAT_ID": 66728, "ELEMENT_SET_NO": 999, "REV_AT_EPOCH": 266, "BSTAR": 0.00026181, "MEAN_MOTION_DOT": 5.285e-05, "MEAN_MOTION_DDOT": 0}, "tle": {"line1": "1 66728U 25276BQ  25355.03608360  .00005285  00000+0  26181-3 0  9997", "line2": "2 66728  97.4405  66.6794 0001573 117.6342 242.5052 15.18187172  2663"}}, "geometry": {"type": "Point", "coordinates": [-114.69376490059176, -13.021874221629266]}}, {"type": "Feature", "properties": {"norad_id": 66729, "name": "FLOCK 4H-26", "group": "last-30-days", "lat": 73.856519798598, "lon": -86.16265992747564, "alt_km": 509.89818927195574, "timestamp": "2025-12-21T09:37:21.371808+00:00", "meta": {"OBJECT_NAME": "FLOCK 4H-26", "OBJECT_ID": "2025-276BR", "EPOCH": "2025-12-21T04:24:55.099584", "MEAN_MOTION": 15.17129278, "ECCENTRICITY": 0.0003669, "INCLINATION": 97.4401, "RA_OF_ASC_NODE": 66.7866, "ARG_OF_PERICENTER": 268.7658, "MEAN_ANOMALY": 91.3155, "EPHEMERIS_TYPE": 0, "CLASSIFICATION_TYPE": "U", "NORAD_CAT_ID": 66729, "ELEMENT_SET_NO": 999, "REV_AT_EPOCH": 340, "BSTAR": 0.00026948, "MEAN_MOTION_DOT": 5.279e-05, "MEAN_MOTION_DDOT": 0}, "tle": {"line1": "1 66729U 25276BR  25355.18397106  .00005279  00000+0  26948-3 0  9991", "line2": "2 66729  97.4401  66.7866 0003669 268.7658  91.3155 15.17129278  3406"}}, "geometry": {"type": "Point", "coordinates": [-86.16265992747564, 73.856519798598]}}, {"type": "Feature", "properties": {"norad_id": 66730, "name": "FLOCK 4H-27", "group": "last-30-days", "lat": -2.1584722611929523, "lon": -113.25592216091779, "alt_km": 514.573936610459, "timestamp": "2025-12-21T09:37:21.371818+00:00", "meta": {"OBJECT_NAME": "FLOCK 4H-27", "OBJECT_ID": "2025-276BS", "EPOCH": "2025-12-21T04:04:38.299008", "MEAN_MOTION": 15.18058565, "ECCENTRICITY": 0.000114, "INCLINATION": 97.4382, "RA_OF_ASC_NODE": 66.7991, "ARG_OF_PERICENTER": 131.3471, "MEAN_ANOMALY": 228.7861, "EPHEMERIS_TYPE": 0, "CLASSIFICATION_TYPE": "U", "NORAD_CAT_ID": 66730, "ELEMENT_SET_NO": 999, "REV_AT_EPOCH": 340, "BSTAR": 0.00032874, "MEAN_MOTION_DOT": 6.63e-05, "MEAN_MOTION_DDOT": 0}, "tle": {"line1": "1 66730U 25276BS  25355.16988772  .00006630  00000+0  32874-3 0  9993", "line2": "2 66730  97.4382  66.7991 0001140 131.3471 228.7861 15.18058565  3406"}}, "geometry": {"type": "Point", "coordinates": [-113.25592216091779, -2.1584722611929523]}}, {"type": "Feature", "properties": {"norad_id": 66731, "name": "FLOCK 4H-28", "group": "last-30-days", "lat": 72.25710452981313, "lon": -88.90160995705965, "alt_km": 509.75023463978505, "timestamp": "2025-12-21T09:37:21.371829+00:00", "meta": {"OBJECT_NAME": "FLOCK 4H-28", "OBJECT_ID": "2025-276BT", "EPOCH": "2025-12-21T04:24:26.815680", "MEAN_MOTION": 15.1711562, "ECCENTRICITY": 0.0003202, "INCLINATION": 97.439, "RA_OF_ASC_NODE": 66.7834, "ARG_OF_PERICENTER": 271.3259, "MEAN_ANOMALY": 88.7608, "EPHEMERIS_TYPE": 0, "CLASSIFICATION_TYPE": "U", "NORAD_CAT_ID": 66731, "ELEMENT_SET_NO": 999, "REV_AT_EPOCH": 340, "BSTAR": 0.00023407, "MEAN_MOTION_DOT": 4.574e-05, "MEAN_MOTION_DDOT": 0}, "tle": {"line1": "1 66731U 25276BT  25355.18364370  .00004574  00000+0  23407-3 0  9995", "line2": "2 66731  97.4390  66.7834 0003202 271.3259  88.7608 15.17115620  3400"}}, "geometry": {"type": "Point", "coordinates": [-88.90160995705965, 72.25710452981313]}}, {"type": "Feature", "properties": {"norad_id": 66732, "name": "FLOCK 4H-29", "group": "last-30-days", "lat": 61.321031889758295, "lon": -99.15624354528764, "alt_km": 507.8384561241219, "timestamp": "2025-12-21T09:37:21.371841+00:00", "meta": {"OBJECT_NAME": "FLOCK 4H-29", "OBJECT_ID": "2025-276BU", "EPOCH": "2025-12-21T02:46:27.745824", "MEAN_MOTION": 15.17292602, "ECCENTRICITY": 0.0002099, "INCLINATION": 97.4505, "RA_OF_ASC_NODE": 66.7216, "ARG_OF_PERICENTER": 200.046, "MEAN_ANOMALY": 160.0691, "EPHEMERIS_TYPE": 0, "CLASSIFICATION_TYPE": "U", "NORAD_CAT_ID": 66732, "ELEMENT_SET_NO": 999, "REV_AT_EPOCH": 339, "BSTAR": 0.001132, "MEAN_MOTION_DOT": 0.00022541, "MEAN_MOTION_DDOT": 0}, "tle": {"line1": "1 66732U 25276BU  25355.11559891  .00022541  00000+0  11320-2 0  9997", "line2": "2 66732  97.4505  66.7216 0002099 200.0460 160.0691 15.17292602  3399"}}, "geometry": {"type": "Point", "coordinates": [-99.15624354528764, 61.321031889758295]}}, {"type": "Feature", "properties": {"norad_id": 66733, "name": "FLOCK 4H-30", "group": "last-30-days", "lat": 63.34485341787951, "lon": -97.88955160886015, "alt_km": 508.8357978597214, "timestamp": "2025-12-21T09:37:21.371852+00:00", "meta": {"OBJECT_NAME": "FLOCK 4H-30", "OBJECT_ID": "2025-276BV", "EPOCH": "2025-12-20T22:02:28.023360", "MEAN_MOTION": 15.1805052, "ECCENTRICITY": 0.0007921, "INCLINATION": 97.4405, "RA_OF_ASC_NODE": 66.5451, "ARG_OF_PERICENTER": 250.1182, "MEAN_ANOMALY": 109.9199, "EPHEMERIS_TYPE": 0, "CLASSIFICATION_TYPE": "U", "NORAD_CAT_ID": 66733, "ELEMENT_SET_NO": 999, "REV_AT_EPOCH": 336, "BSTAR": 0.0079948, "MEAN_MOTION_DOT": 0.00166437, "MEAN_MOTION_DDOT": 0}, "tle": {"line1": "1 66733U 25276BV  25354.91837990  .00166437  00000+0  79948-2 0  9997", "line2": "2 66733  97.4405  66.5451 0007921 250.1182 109.9199 15.18050520  3368"}}, "geometry": {"type": "Point", "coordinates": [-97.88955160886015, 63.34485341787951]}}, {"type": "Feature", "properties": {"norad_id": 66734, "name": "FLOCK 4H-31", "group": "last-30-days", "lat": 66.36003768189252, "lon": -95.63900931907475, "alt_km": 509.70834785831266, "timestamp": "2025-12-21T09:37:21.371862+00:00", "meta": {"OBJECT_NAME": "FLOCK 4H-31", "OBJECT_ID": "2025-276BW", "EPOCH": "2025-12-21T04:22:47.612064", "MEAN_MOTION": 15.17191693, "ECCENTRICITY": 0.0002699, "INCLINATION": 97.4383, "RA_OF_ASC_NODE": 66.7806, "ARG_OF_PERICENTER": 283.0909, "MEAN_ANOMALY": 77.0023, "EPHEMERIS_TYPE": 0, "CLASSIFICATION_TYPE": "U", "NORAD_CAT_ID": 66734, "ELEMENT_SET_NO": 999, "REV_AT_EPOCH": 340, "BSTAR": 0.0004508, "MEAN_MOTION_DOT": 8.895e-05, "MEAN_MOTION_DDOT": 0}, "tle": {"line1": "1 66734U 25276BW  25355.18249551  .00008895  00000+0  45080-3 0  9992", "line2": "2 66734  97.4383  66.7806 0002699 283.0909  77.0023 15.17191693  3401"}}, "geometry": {"type": "Point", "coordinates": [-95.63900931907475, 66.36003768189252]}}, {"type": "Feature", "properties": {"norad_id": 66735, "name": "FLOCK 4H-32", "group": "last-30-days", "lat": 68.63728325171095, "lon": -93.4601249061714, "alt_km": 509.8528458959345, "timestamp": "2025-12-21T09:37:21.371873+00:00", "meta": {"OBJECT_NAME": "FLOCK 4H-32", "OBJECT_ID": "2025-276BX", "EPOCH": "2025-12-21T04:23:25.661760", "MEAN_MOTION": 15.1719941, "ECCENTRICITY": 0.0003467, "INCLINATION": 97.4436, "RA_OF_ASC_NODE": 66.7985, "ARG_OF_PERICENTER": 267.705, "MEAN_ANOMALY": 92.3787, "EPHEMERIS_TYPE": 0, "CLASSIFICATION_TYPE": "U", "NORAD_CAT_ID": 66735, "ELEMENT_SET_NO": 999, "REV_AT_EPOCH": 340, "BSTAR": 0.0002557, "MEAN_MOTION_DOT": 5.015e-05, "MEAN_MOTION_DDOT": 0}, "tle": {"line1": "1 66735U 25276BX  25355.18293590  .00005015  00000+0  25570-3 0  9998", "line2": "2 66735  97.4436  66.7985 0003467 267.7050  92.3787 15.17199410  3401"}}, "geometry": {"type": "Point", "coordinates": [-93.4601249061714, 68.63728325171095]}}]}